{"type":"FeatureCollection","features":[{"type":"Feature","properties":{"Name":"Akaigawa Caldera","Elevation Meters":725,"Elevation Feet":2379,"Last Eruption":"~1.3 million years ago","Region":"Hokkaido"},"geometry":{"type":"Point","coordinates":[140.817,43.083]}},{"type":"Feature","properties":{"Name":"Mount Atosanupuri","Elevation Meters":512,"Elevation Feet":1680,"Last Eruption":"950-1750","Region":"Hokkaido"},"geometry":{"type":"Point","coordinates":[144.438,43.61]}},{"type":"Feature","properties":{"Name":"Daisetsuzan Volcanic Group","Elevation Meters":2290,"Elevation Feet":7513,"Last Eruption":1739,"Region":"Hokkaido"},"geometry":{"type":"Point","coordinates":[142.854,43.663]}},{"type":"Feature","properties":{"Name":"Mount Eniwa","Elevation Meters":1320,"Elevation Feet":4331,"Last Eruption":1707,"Region":"Hokkaido"},"geometry":{"type":"Point","coordinates":[141.285,42.793]}},{"type":"Feature","properties":{"Name":"Mount Esan","Elevation Meters":613,"Elevation Feet":2028,"Last Eruption":1874,"Region":"Hokkaido"},"geometry":{"type":"Point","coordinates":[141.166,41.804]}},{"type":"Feature","properties":{"Name":"Akan Caldera","Elevation Meters":"-","Elevation Feet":"-","Last Eruption":"~250,000 years ago","Region":"Hokkaido"},"geometry":{"type":"Point","coordinates":[144.11,43.451]}},{"type":"Feature","properties":{"Name":"Mount Meakan","Elevation Meters":1499,"Elevation Feet":4916,"Last Eruption":2008,"Region":"Hokkaido"},"geometry":{"type":"Point","coordinates":[144.008,43.386]}},{"type":"Feature","properties":{"Name":"Mount Oakan","Elevation Meters":1370,"Elevation Feet":4495,"Last Eruption":"~5000-2500 years ago","Region":"Hokkaido"},"geometry":{"type":"Point","coordinates":[144.163,43.453]}},{"type":"Feature","properties":{"Name":"Mount Io","Elevation Meters":1563,"Elevation Feet":5128,"Last Eruption":1936,"Region":"Hokkaido"},"geometry":{"type":"Point","coordinates":[145.165,44.131]}},{"type":"Feature","properties":{"Name":"Kussharo Caldera","Elevation Meters":"-","Elevation Feet":"-","Last Eruption":350,"Region":"Hokkaido"},"geometry":{"type":"Point","coordinates":[144.336,43.621]}},{"type":"Feature","properties":{"Name":"Kuttara Caldera","Elevation Meters":581,"Elevation Feet":1906,"Last Eruption":"~40,000 years ago","Region":"Hokkaido"},"geometry":{"type":"Point","coordinates":[141.175,42.499]}},{"type":"Feature","properties":{"Name":"Mashu Caldera","Elevation Meters":855,"Elevation Feet":2805,"Last Eruption":"~950 AD","Region":"Hokkaido"},"geometry":{"type":"Point","coordinates":[144.565,43.57]}},{"type":"Feature","properties":{"Name":"Nigorigawa Caldera","Elevation Meters":356,"Elevation Feet":1168,"Last Eruption":"~15,000 years ago","Region":"Hokkaido"},"geometry":{"type":"Point","coordinates":[140.45,42.12]}},{"type":"Feature","properties":{"Name":"Nipesotsu-Maruyama Volcanic Group","Elevation Meters":2013,"Elevation Feet":6604,"Last Eruption":1898,"Region":"Hokkaido"},"geometry":{"type":"Point","coordinates":[143.036,43.453]}},{"type":"Feature","properties":{"Name":"Niseko Volcanic Group","Elevation Meters":1309,"Elevation Feet":4295,"Last Eruption":"~6000 years ago","Region":"Hokkaido"},"geometry":{"type":"Point","coordinates":[140.63,42.88]}},{"type":"Feature","properties":{"Name":"Mount Onnebetsu","Elevation Meters":1330,"Elevation Feet":4364,"Last Eruption":"~200,000 years ago","Region":"Hokkaido"},"geometry":{"type":"Point","coordinates":[145.013,43.993]}},{"type":"Feature","properties":{"Name":"Oshima-Oshima","Elevation Meters":737,"Elevation Feet":2418,"Last Eruption":1759,"Region":"Hokkaido"},"geometry":{"type":"Point","coordinates":[139.37,41.5]}},{"type":"Feature","properties":{"Name":"Mount Rausu","Elevation Meters":1661,"Elevation Feet":5449,"Last Eruption":1800,"Region":"Hokkaido"},"geometry":{"type":"Point","coordinates":[145.122,44.075]}},{"type":"Feature","properties":{"Name":"Mount Rishiri","Elevation Meters":1721,"Elevation Feet":5646,"Last Eruption":"~7800 years ago","Region":"Hokkaido"},"geometry":{"type":"Point","coordinates":[141.25,45.18]}},{"type":"Feature","properties":{"Name":"Shikaribetsu Volcano Group","Elevation Meters":1430,"Elevation Feet":4692,"Last Eruption":"~20,000 years ago","Region":"Hokkaido"},"geometry":{"type":"Point","coordinates":[143.096,43.312]}},{"type":"Feature","properties":{"Name":"Shikotsu Caldera","Elevation Meters":1320,"Elevation Feet":4331,"Last Eruption":1978,"Region":"Hokkaido"},"geometry":{"type":"Point","coordinates":[141.327,42.753]}},{"type":"Feature","properties":{"Name":"Mount Shiribetsu","Elevation Meters":1107,"Elevation Feet":3632,"Last Eruption":"Unknown","Region":"Hokkaido"},"geometry":{"type":"Point","coordinates":[140.916,42.767]}},{"type":"Feature","properties":{"Name":"Toya Caldera","Elevation Meters":"-","Elevation Feet":"-","Last Eruption":"~40,000–30,000 years ago","Region":"Hokkaido"},"geometry":{"type":"Point","coordinates":[140.851,42.602]}},{"type":"Feature","properties":{"Name":"Mount Hokkaido-Komagatake","Elevation Meters":1131,"Elevation Feet":3711,"Last Eruption":2000,"Region":"Hokkaido"},"geometry":{"type":"Point","coordinates":[140.677,42.063]}},{"type":"Feature","properties":{"Name":"Mount Shari","Elevation Meters":1547,"Elevation Feet":5075,"Last Eruption":"~250,000 years ago","Region":"Hokkaido"},"geometry":{"type":"Point","coordinates":[144.717,43.765]}},{"type":"Feature","properties":{"Name":"Mount Shiretoko","Elevation Meters":1254,"Elevation Feet":4114,"Last Eruption":"~200,000 years ago","Region":"Hokkaido"},"geometry":{"type":"Point","coordinates":[145.273,44.235]}},{"type":"Feature","properties":{"Name":"Mount Tarumae","Elevation Meters":1041,"Elevation Feet":3416,"Last Eruption":1981,"Region":"Hokkaido"},"geometry":{"type":"Point","coordinates":[141.376,42.69]}},{"type":"Feature","properties":{"Name":"Mount Tencho","Elevation Meters":1046,"Elevation Feet":3432,"Last Eruption":"~50 AD","Region":"Hokkaido"},"geometry":{"type":"Point","coordinates":[145.086,44.044]}},{"type":"Feature","properties":{"Name":"Tokachi-Mitsumata Caldera","Elevation Meters":"-","Elevation Feet":"-","Last Eruption":"~1 million years ago","Region":"Hokkaido"},"geometry":{"type":"Point","coordinates":[143.15,43.516]}},{"type":"Feature","properties":{"Name":"Tomuraushi-Chubetsu Volcano Group","Elevation Meters":2141,"Elevation Feet":7024,"Last Eruption":"~100,000 years ago","Region":"Hokkaido"},"geometry":{"type":"Point","coordinates":[142.849,43.527]}},{"type":"Feature","properties":{"Name":"Mount Unabetsu","Elevation Meters":1419,"Elevation Feet":4656,"Last Eruption":"~500,000 years ago","Region":"Hokkaido"},"geometry":{"type":"Point","coordinates":[144.876,43.876]}},{"type":"Feature","properties":{"Name":"Mount Usu","Elevation Meters":737,"Elevation Feet":2418,"Last Eruption":2000,"Region":"Hokkaido"},"geometry":{"type":"Point","coordinates":[140.839,42.543]}},{"type":"Feature","properties":{"Name":"Mount Yotei","Elevation Meters":1898,"Elevation Feet":6227,"Last Eruption":"~2500 years ago","Region":"Hokkaido"},"geometry":{"type":"Point","coordinates":[140.811,42.826]}},{"type":"Feature","properties":{"Name":"Abu Volcano Group","Elevation Meters":"-","Elevation Feet":"-","Last Eruption":"~8800 years ago","Region":"Honshu"},"geometry":{"type":"Point","coordinates":[131.6,34.5]}},{"type":"Feature","properties":{"Name":"Mount Adatara","Elevation Meters":1718,"Elevation Feet":5635,"Last Eruption":1900,"Region":"Honshu"},"geometry":{"type":"Point","coordinates":[140.28,37.62]}},{"type":"Feature","properties":{"Name":"Mount Akagi","Elevation Meters":1828,"Elevation Feet":5997,"Last Eruption":1251,"Region":"Honshu"},"geometry":{"type":"Point","coordinates":[139.18,36.53]}},{"type":"Feature","properties":{"Name":"Mount Akandana","Elevation Meters":2109,"Elevation Feet":6919,"Last Eruption":"~10,000–6500 years ago","Region":"Honshu"},"geometry":{"type":"Point","coordinates":[137.572,36.2]}},{"type":"Feature","properties":{"Name":"Mount Akita-Komagatake","Elevation Meters":1637,"Elevation Feet":5371,"Last Eruption":1971,"Region":"Honshu"},"geometry":{"type":"Point","coordinates":[140.8,39.75]}},{"type":"Feature","properties":{"Name":"Mount Akita-Yakeyama","Elevation Meters":1366,"Elevation Feet":4482,"Last Eruption":1997,"Region":"Honshu"},"geometry":{"type":"Point","coordinates":[140.757,39.964]}},{"type":"Feature","properties":{"Name":"Mount Amagi","Elevation Meters":1406,"Elevation Feet":4613,"Last Eruption":"~200,000 years ago","Region":"Honshu"},"geometry":{"type":"Point","coordinates":[139.002,34.862]}},{"type":"Feature","properties":{"Name":"Aonoyama Volcano Group","Elevation Meters":"-","Elevation Feet":"-","Last Eruption":"~70,000 years ago","Region":"Honshu"},"geometry":{"type":"Point","coordinates":[131.791,34.461]}},{"type":"Feature","properties":{"Name":"Mount Asakusa","Elevation Meters":1585,"Elevation Feet":5200,"Last Eruption":"~1.6 million years ago","Region":"Honshu"},"geometry":{"type":"Point","coordinates":[139.234,37.343]}},{"type":"Feature","properties":{"Name":"Mount Asama","Elevation Meters":2544,"Elevation Feet":8340,"Last Eruption":2019,"Region":"Honshu"},"geometry":{"type":"Point","coordinates":[138.522,36.405]}},{"type":"Feature","properties":{"Name":"Mount Ashitaka","Elevation Meters":1504,"Elevation Feet":4934,"Last Eruption":"~80,000 years ago","Region":"Honshu"},"geometry":{"type":"Point","coordinates":[138.8,35.219]}},{"type":"Feature","properties":{"Name":"Mount Azuma","Elevation Meters":1705,"Elevation Feet":5594,"Last Eruption":1977,"Region":"Honshu"},"geometry":{"type":"Point","coordinates":[140.25,37.73]}},{"type":"Feature","properties":{"Name":"Mount Azumaya","Elevation Meters":2354,"Elevation Feet":7723,"Last Eruption":"~300,000 years ago","Region":"Honshu"},"geometry":{"type":"Point","coordinates":[138.413,36.542]}},{"type":"Feature","properties":{"Name":"Mount Bandai","Elevation Meters":1819,"Elevation Feet":5968,"Last Eruption":1888,"Region":"Honshu"},"geometry":{"type":"Point","coordinates":[140.08,37.6]}},{"type":"Feature","properties":{"Name":"Mount Chokai","Elevation Meters":2237,"Elevation Feet":7326,"Last Eruption":1974,"Region":"Honshu"},"geometry":{"type":"Point","coordinates":[140.03,39.08]}},{"type":"Feature","properties":{"Name":"Mount Daisen","Elevation Meters":1729,"Elevation Feet":5673,"Last Eruption":"~17,000 years ago","Region":"Honshu"},"geometry":{"type":"Point","coordinates":[133.54,35.371]}},{"type":"Feature","properties":{"Name":"Mount Daruma","Elevation Meters":982,"Elevation Feet":3222,"Last Eruption":"~500,000 years ago","Region":"Honshu"},"geometry":{"type":"Point","coordinates":[138.839,34.955]}},{"type":"Feature","properties":{"Name":"Eboshi Volcano Group","Elevation Meters":2227,"Elevation Feet":7306,"Last Eruption":"~300,000 years ago","Region":"Honshu"},"geometry":{"type":"Point","coordinates":[138.387,36.433]}},{"type":"Feature","properties":{"Name":"Mount Fuji","Elevation Meters":3776,"Elevation Feet":12388,"Last Eruption":1717,"Region":"Honshu"},"geometry":{"type":"Point","coordinates":[138.731,35.358]}},{"type":"Feature","properties":{"Name":"Mount Futamata","Elevation Meters":1548,"Elevation Feet":5079,"Last Eruption":"~90,000 years ago","Region":"Honshu"},"geometry":{"type":"Point","coordinates":[139.967,37.246]}},{"type":"Feature","properties":{"Name":"Mount Gassan","Elevation Meters":1984,"Elevation Feet":6509,"Last Eruption":"~300,000 years ago","Region":"Honshu"},"geometry":{"type":"Point","coordinates":[140.027,38.549]}},{"type":"Feature","properties":{"Name":"Mount Hachimantai","Elevation Meters":1614,"Elevation Feet":5295,"Last Eruption":"~7300 years ago","Region":"Honshu"},"geometry":{"type":"Point","coordinates":[140.85,39.95]}},{"type":"Feature","properties":{"Name":"Hakkoda Caldera","Elevation Meters":"-","Elevation Feet":"-","Last Eruption":"~400,000 years ago","Region":"Honshu"},"geometry":{"type":"Point","coordinates":[140.93,40.693]}},{"type":"Feature","properties":{"Name":"Mount Hakkoda","Elevation Meters":1585,"Elevation Feet":5200,"Last Eruption":"~1350–1550 AD","Region":"Honshu"},"geometry":{"type":"Point","coordinates":[140.881,40.656]}},{"type":"Feature","properties":{"Name":"Mount Hakone","Elevation Meters":1438,"Elevation Feet":4720,"Last Eruption":2015,"Region":"Honshu"},"geometry":{"type":"Point","coordinates":[139.02,35.22]}},{"type":"Feature","properties":{"Name":"Mount Haku","Elevation Meters":2702,"Elevation Feet":8865,"Last Eruption":1659,"Region":"Honshu"},"geometry":{"type":"Point","coordinates":[136.78,36.15]}},{"type":"Feature","properties":{"Name":"Mount Haruna","Elevation Meters":1449,"Elevation Feet":4754,"Last Eruption":"525–550","Region":"Honshu"},"geometry":{"type":"Point","coordinates":[138.88,36.47]}},{"type":"Feature","properties":{"Name":"Hijiori Caldera","Elevation Meters":516,"Elevation Feet":1693,"Last Eruption":"~12,000 years ago","Region":"Honshu"},"geometry":{"type":"Point","coordinates":[140.161,38.608]}},{"type":"Feature","properties":{"Name":"Mount Hiuchigatake","Elevation Meters":2356,"Elevation Feet":7730,"Last Eruption":1544,"Region":"Honshu"},"geometry":{"type":"Point","coordinates":[139.28,36.95]}},{"type":"Feature","properties":{"Name":"Mount Hotaka","Elevation Meters":2158,"Elevation Feet":7080,"Last Eruption":"~1 million years ago","Region":"Honshu"},"geometry":{"type":"Point","coordinates":[139.132,36.805]}},{"type":"Feature","properties":{"Name":"Ikarigaseki Caldera","Elevation Meters":"-","Elevation Feet":"-","Last Eruption":"~1.3 million years ago","Region":"Honshu"},"geometry":{"type":"Point","coordinates":[140.62,40.499]}},{"type":"Feature","properties":{"Name":"Mount Iiji ","Elevation Meters":1112,"Elevation Feet":3648,"Last Eruption":"~200,000 years ago","Region":"Honshu"},"geometry":{"type":"Point","coordinates":[138.833,36.956]}},{"type":"Feature","properties":{"Name":"Mount Iizuna","Elevation Meters":1917,"Elevation Feet":6289,"Last Eruption":"~150,000 years ago","Region":"Honshu"},"geometry":{"type":"Point","coordinates":[138.136,36.739]}},{"type":"Feature","properties":{"Name":"Mount Iwaki","Elevation Meters":1625,"Elevation Feet":5331,"Last Eruption":1863,"Region":"Honshu"},"geometry":{"type":"Point","coordinates":[140.3,40.65]}},{"type":"Feature","properties":{"Name":"Izu-Tobu volcano Group","Elevation Meters":1406,"Elevation Feet":4613,"Last Eruption":1989,"Region":"Honshu"},"geometry":{"type":"Point","coordinates":[139.12,34.92]}},{"type":"Feature","properties":{"Name":"Mount Iwate","Elevation Meters":2041,"Elevation Feet":6696,"Last Eruption":1919,"Region":"Honshu"},"geometry":{"type":"Point","coordinates":[141.004,39.85]}},{"type":"Feature","properties":{"Name":"Kannabe Volcano Group","Elevation Meters":"-","Elevation Feet":"-","Last Eruption":"~20,000–10,000 years ago","Region":"Honshu"},"geometry":{"type":"Point","coordinates":[134.675,35.507]}},{"type":"Feature","properties":{"Name":"Mount Kanpu","Elevation Meters":355,"Elevation Feet":1165,"Last Eruption":"~10,000 years ago","Region":"Honshu"},"geometry":{"type":"Point","coordinates":[139.88,39.93]}},{"type":"Feature","properties":{"Name":"Mount Kirigamine","Elevation Meters":1925,"Elevation Feet":6316,"Last Eruption":"~750,000 years ago","Region":"Honshu"},"geometry":{"type":"Point","coordinates":[138.196,36.103]}},{"type":"Feature","properties":{"Name":"Mount Komochi","Elevation Meters":1296,"Elevation Feet":4252,"Last Eruption":"~200,000 years ago","Region":"Honshu"},"geometry":{"type":"Point","coordinates":[138.998,36.591]}},{"type":"Feature","properties":{"Name":"Mount Kurohime","Elevation Meters":2053,"Elevation Feet":6736,"Last Eruption":"~50,000 years ago","Region":"Honshu"},"geometry":{"type":"Point","coordinates":[138.12,36.817]}},{"type":"Feature","properties":{"Name":"Kurofuji Volcano Group","Elevation Meters":1642,"Elevation Feet":5387,"Last Eruption":"~500,000 years ago","Region":"Honshu"},"geometry":{"type":"Point","coordinates":[138.536,35.803]}},{"type":"Feature","properties":{"Name":"Mount Kurikoma","Elevation Meters":1628,"Elevation Feet":5341,"Last Eruption":1944,"Region":"Honshu"},"geometry":{"type":"Point","coordinates":[140.78,38.95]}},{"type":"Feature","properties":{"Name":"Mount Kusatsu-Shirane","Elevation Meters":2160,"Elevation Feet":7123,"Last Eruption":2018,"Region":"Honshu"},"geometry":{"type":"Point","coordinates":[138.535,36.619]}},{"type":"Feature","properties":{"Name":"Mount Onoko","Elevation Meters":1208,"Elevation Feet":3963,"Last Eruption":"~1.2 million years ago","Region":"Honshu"},"geometry":{"type":"Point","coordinates":[138.937,36.581]}},{"type":"Feature","properties":{"Name":"Mount Madarao","Elevation Meters":1382,"Elevation Feet":4534,"Last Eruption":"~500,000 years ago","Region":"Honshu"},"geometry":{"type":"Point","coordinates":[138.274,36.837]}},{"type":"Feature","properties":{"Name":"Mount Minakami","Elevation Meters":659,"Elevation Feet":2162,"Last Eruption":"~300,000 years ago","Region":"Honshu"},"geometry":{"type":"Point","coordinates":[138.222,36.554]}},{"type":"Feature","properties":{"Name":"Megata","Elevation Meters":291,"Elevation Feet":955,"Last Eruption":"~29,000–20,000 years ago","Region":"Honshu"},"geometry":{"type":"Point","coordinates":[139.73,39.95]}},{"type":"Feature","properties":{"Name":"Mount Moriyoshi","Elevation Meters":1454,"Elevation Feet":4770,"Last Eruption":"~500,000 years ago","Region":"Honshu"},"geometry":{"type":"Point","coordinates":[140.544,39.977]}},{"type":"Feature","properties":{"Name":"Mukaimachi Caldera","Elevation Meters":"-","Elevation Feet":"-","Last Eruption":"~600,000 years ago","Region":"Honshu"},"geometry":{"type":"Point","coordinates":[140.51,38.75]}},{"type":"Feature","properties":{"Name":"Mount Mutsu-Hiuchi","Elevation Meters":781,"Elevation Feet":2562,"Last Eruption":"~500,000 years ago","Region":"Honshu"},"geometry":{"type":"Point","coordinates":[141.052,41.439]}},{"type":"Feature","properties":{"Name":"Mount Myoko","Elevation Meters":2446,"Elevation Feet":8025,"Last Eruption":"~3000 years ago","Region":"Honshu"},"geometry":{"type":"Point","coordinates":[138.113,36.891]}},{"type":"Feature","properties":{"Name":"Mount Naeba","Elevation Meters":2145,"Elevation Feet":7037,"Last Eruption":"~200,000 years ago","Region":"Honshu"},"geometry":{"type":"Point","coordinates":[138.684,36.836]}},{"type":"Feature","properties":{"Name":"Mount Nanashigure","Elevation Meters":1063,"Elevation Feet":3488,"Last Eruption":"~900,000 years ago","Region":"Honshu"},"geometry":{"type":"Point","coordinates":[141.106,40.069]}},{"type":"Feature","properties":{"Name":"Mount Nantai","Elevation Meters":2484,"Elevation Feet":8148,"Last Eruption":"~7000 years ago","Region":"Honshu"},"geometry":{"type":"Point","coordinates":[139.486,36.768]}},{"type":"Feature","properties":{"Name":"Narugo Caldera","Elevation Meters":462,"Elevation Feet":1542,"Last Eruption":837,"Region":"Honshu"},"geometry":{"type":"Point","coordinates":[140.73,38.73]}},{"type":"Feature","properties":{"Name":"Mount Nasu","Elevation Meters":1917,"Elevation Feet":6283,"Last Eruption":1963,"Region":"Honshu"},"geometry":{"type":"Point","coordinates":[139.97,37.12]}},{"type":"Feature","properties":{"Name":"Mount Nekoma","Elevation Meters":1404,"Elevation Feet":4606,"Last Eruption":"~800,000 years ago","Region":"Honshu"},"geometry":{"type":"Point","coordinates":[140.016,37.615]}},{"type":"Feature","properties":{"Name":"Mount Niigata-Yakeyama","Elevation Meters":2400,"Elevation Feet":7874,"Last Eruption":2016,"Region":"Honshu"},"geometry":{"type":"Point","coordinates":[138.036,36.92]}},{"type":"Feature","properties":{"Name":"Mount Nikko-Shirane","Elevation Meters":2578,"Elevation Feet":8458,"Last Eruption":1890,"Region":"Honshu"},"geometry":{"type":"Point","coordinates":[139.376,36.798]}},{"type":"Feature","properties":{"Name":"Nodai Caldera","Elevation Meters":"-","Elevation Feet":"-","Last Eruption":"~1.9 million years ago","Region":"Honshu"},"geometry":{"type":"Point","coordinates":[140.867,41.267]}},{"type":"Feature","properties":{"Name":"Mount Nyoho-Akanagi","Elevation Meters":2483,"Elevation Feet":8146,"Last Eruption":"~80,000 years ago","Region":"Honshu"},"geometry":{"type":"Point","coordinates":[139.536,36.811]}},{"type":"Feature","properties":{"Name":"Mount Norikura","Elevation Meters":3026,"Elevation Feet":9928,"Last Eruption":"~2000 years ago","Region":"Honshu"},"geometry":{"type":"Point","coordinates":[137.55,36.106]}},{"type":"Feature","properties":{"Name":"Numazawa","Elevation Meters":1100,"Elevation Feet":3609,"Last Eruption":"~5400 years ago","Region":"Honshu"},"geometry":{"type":"Point","coordinates":[139.572,37.454]}},{"type":"Feature","properties":{"Name":"Oki-Dogo","Elevation Meters":151,"Elevation Feet":495,"Last Eruption":"~420,000 years ago","Region":"Honshu"},"geometry":{"type":"Point","coordinates":[133.324,36.181]}},{"type":"Feature","properties":{"Name":"Okiura Caldera","Elevation Meters":"-","Elevation Feet":"-","Last Eruption":"~1.5 million years ago","Region":"Honshu"},"geometry":{"type":"Point","coordinates":[140.733,40.567]}},{"type":"Feature","properties":{"Name":"Mount Omanago","Elevation Meters":2376,"Elevation Feet":7795,"Last Eruption":"~470,000 years ago","Region":"Honshu"},"geometry":{"type":"Point","coordinates":[139.507,36.796]}},{"type":"Feature","properties":{"Name":"Mount Ontake","Elevation Meters":3063,"Elevation Feet":10049,"Last Eruption":2020,"Region":"Honshu"},"geometry":{"type":"Point","coordinates":[137.48,35.89]}},{"type":"Feature","properties":{"Name":"Onikobe Caldera","Elevation Meters":"-","Elevation Feet":"-","Last Eruption":"~200,000 years ago","Region":"Honshu"},"geometry":{"type":"Point","coordinates":[140.69,38.83]}},{"type":"Feature","properties":{"Name":"Mount Osore","Elevation Meters":879,"Elevation Feet":2884,"Last Eruption":"~20,000 years ago OR 1787","Region":"Honshu"},"geometry":{"type":"Point","coordinates":[141.08,41.32]}},{"type":"Feature","properties":{"Name":"Mount Sanbe","Elevation Meters":1126,"Elevation Feet":3694,"Last Eruption":"~650–750 AD","Region":"Honshu"},"geometry":{"type":"Point","coordinates":[132.62,35.13]}},{"type":"Feature","properties":{"Name":"Mount Shiga","Elevation Meters":2041,"Elevation Feet":6696,"Last Eruption":"~10,000 years ago","Region":"Honshu"},"geometry":{"type":"Point","coordinates":[138.52,36.7]}},{"type":"Feature","properties":{"Name":"Mount Sukai","Elevation Meters":2144,"Elevation Feet":7034,"Last Eruption":"~900,000 years ago","Region":"Honshu"},"geometry":{"type":"Point","coordinates":[139.337,36.689]}},{"type":"Feature","properties":{"Name":"Mount Takahara","Elevation Meters":1795,"Elevation Feet":5889,"Last Eruption":"~6500 years ago","Region":"Honshu"},"geometry":{"type":"Point","coordinates":[139.78,36.9]}},{"type":"Feature","properties":{"Name":"Mount Takara","Elevation Meters":350,"Elevation Feet":1148,"Last Eruption":"~300,000 years ago","Region":"Honshu"},"geometry":{"type":"Point","coordinates":[134.919,35.346]}},{"type":"Feature","properties":{"Name":"Mount Takayashiro","Elevation Meters":1351,"Elevation Feet":4432,"Last Eruption":"~200,000 years ago","Region":"Honshu"},"geometry":{"type":"Point","coordinates":[138.403,36.799]}},{"type":"Feature","properties":{"Name":"Midagahara (A.K.A. Tateyama)","Elevation Meters":"-","Elevation Feet":"-","Last Eruption":"1836 & 1949","Region":"Honshu"},"geometry":{"type":"Point","coordinates":[137.6,36.57]}},{"type":"Feature","properties":{"Name":"Tazawako Caldera","Elevation Meters":"-","Elevation Feet":"-","Last Eruption":"~1.4 million years ago","Region":"Honshu"},"geometry":{"type":"Point","coordinates":[140.661,39.722]}},{"type":"Feature","properties":{"Name":"Tokachidake Volcano Group","Elevation Meters":2077,"Elevation Feet":6814,"Last Eruption":2004,"Region":"Honshu"},"geometry":{"type":"Point","coordinates":[142.686,43.418]}},{"type":"Feature","properties":{"Name":"Towada Caldera","Elevation Meters":1159,"Elevation Feet":3802,"Last Eruption":915,"Region":"Honshu"},"geometry":{"type":"Point","coordinates":[140.92,40.47]}},{"type":"Feature","properties":{"Name":"Washiba-Kumontaira","Elevation Meters":2924,"Elevation Feet":9593,"Last Eruption":"4000 BC","Region":"Honshu"},"geometry":{"type":"Point","coordinates":[137.594,36.408]}},{"type":"Feature","properties":{"Name":"Mount Yake","Elevation Meters":2455,"Elevation Feet":8054,"Last Eruption":1963,"Region":"Honshu"},"geometry":{"type":"Point","coordinates":[137.587,36.226]}},{"type":"Feature","properties":{"Name":"Mount Yakeishi","Elevation Meters":1548,"Elevation Feet":5079,"Last Eruption":"~200,000 years ago","Region":"Honshu"},"geometry":{"type":"Point","coordinates":[140.829,39.164]}},{"type":"Feature","properties":{"Name":"Kita-Yatsugatake (Northern Yatsugatake Volcanic Group)","Elevation Meters":"-","Elevation Feet":"-","Last Eruption":"~1050–1250 AD","Region":"Honshu"},"geometry":{"type":"Point","coordinates":[138.32,36.088]}},{"type":"Feature","properties":{"Name":"Minami-Yatsugatake (Southern Yatsugatake Volcanic Group)","Elevation Meters":"-","Elevation Feet":"-","Last Eruption":"~100,000 years ago","Region":"Honshu"},"geometry":{"type":"Point","coordinates":[138.37,35.971]}},{"type":"Feature","properties":{"Name":"Mount Tateshina (Part of Northern Yatsugatake Volcanic Group)","Elevation Meters":2530,"Elevation Feet":8300,"Last Eruption":1940,"Region":"Honshu"},"geometry":{"type":"Point","coordinates":[138.3,36.1]}},{"type":"Feature","properties":{"Name":"Mount Zao","Elevation Meters":1841,"Elevation Feet":6040,"Last Eruption":1785,"Region":"Honshu"},"geometry":{"type":"Point","coordinates":[140.45,38.15]}},{"type":"Feature","properties":{"Name":"Aogashima","Elevation Meters":423,"Elevation Feet":1388,"Last Eruption":1970,"Region":"Izu_Islands"},"geometry":{"type":"Point","coordinates":[139.77,32.45]}},{"type":"Feature","properties":{"Name":"Bayonnaise Rocks","Elevation Meters":11,"Elevation Feet":36,"Last Eruption":1605,"Region":"Izu_Islands"},"geometry":{"type":"Point","coordinates":[139.918,31.888]}},{"type":"Feature","properties":{"Name":"Hachijojima","Elevation Meters":854,"Elevation Feet":2802,"Last Eruption":1990,"Region":"Izu_Islands"},"geometry":{"type":"Point","coordinates":[139.77,33.13]}},{"type":"Feature","properties":{"Name":"Izu-Oshima","Elevation Meters":758,"Elevation Feet":2507,"Last Eruption":838,"Region":"Izu_Islands"},"geometry":{"type":"Point","coordinates":[139.394,34.726]}},{"type":"Feature","properties":{"Name":"Kozushima","Elevation Meters":574,"Elevation Feet":1877,"Last Eruption":"~20,000 years ago","Region":"Izu_Islands"},"geometry":{"type":"Point","coordinates":[139.15,34.22]}},{"type":"Feature","properties":{"Name":"Kurose","Elevation Meters":-110,"Elevation Feet":-361,"Last Eruption":"~6300 years ago","Region":"Izu_Islands"},"geometry":{"type":"Point","coordinates":[139.68,33.4]}},{"type":"Feature","properties":{"Name":"Mikurajima","Elevation Meters":851,"Elevation Feet":2792,"Last Eruption":2013,"Region":"Izu_Islands"},"geometry":{"type":"Point","coordinates":[139.605,33.871]}},{"type":"Feature","properties":{"Name":"Miyakejima","Elevation Meters":813,"Elevation Feet":2674,"Last Eruption":1970,"Region":"Izu_Islands"},"geometry":{"type":"Point","coordinates":[139.526,34.086]}},{"type":"Feature","properties":{"Name":"Myojinsho (A.K.A. Myojin Reef)","Elevation Meters":-50,"Elevation Feet":-164,"Last Eruption":887,"Region":"Izu_Islands"},"geometry":{"type":"Point","coordinates":[140.021,31.918]}},{"type":"Feature","properties":{"Name":"Niijima","Elevation Meters":432,"Elevation Feet":1417,"Last Eruption":1975,"Region":"Izu_Islands"},"geometry":{"type":"Point","coordinates":[139.27,34.37]}},{"type":"Feature","properties":{"Name":"Sofugan (A.K.A. Lot's Wife)","Elevation Meters":99,"Elevation Feet":325,"Last Eruption":1916,"Region":"Izu_Islands"},"geometry":{"type":"Point","coordinates":[140.342,29.793]}},{"type":"Feature","properties":{"Name":"Sumisujima (A.K.A. Smith Rocks)","Elevation Meters":136,"Elevation Feet":446,"Last Eruption":"~9100–4000 years ago","Region":"Izu_Islands"},"geometry":{"type":"Point","coordinates":[140.05,31.439]}},{"type":"Feature","properties":{"Name":"Toshima","Elevation Meters":508,"Elevation Feet":1667,"Last Eruption":2002,"Region":"Izu_Islands"},"geometry":{"type":"Point","coordinates":[139.28,34.52]}},{"type":"Feature","properties":{"Name":"Torishima (A.K.A. Izu-Torishima)","Elevation Meters":394,"Elevation Feet":1293,"Last Eruption":2017,"Region":"Izu_Islands"},"geometry":{"type":"Point","coordinates":[140.302,30.484]}},{"type":"Feature","properties":{"Name":"Nishinoshima","Elevation Meters":142,"Elevation Feet":466,"Last Eruption":2005,"Region":"Ogasawara_Archipelago"},"geometry":{"type":"Point","coordinates":[140.877,27.274]}},{"type":"Feature","properties":{"Name":"Fukutoku-Okanoba","Elevation Meters":-25,"Elevation Feet":-82,"Last Eruption":1974,"Region":"Ogasawara_Archipelago"},"geometry":{"type":"Point","coordinates":[141.485,24.28]}},{"type":"Feature","properties":{"Name":"Fukujin Seamount","Elevation Meters":-43,"Elevation Feet":-141,"Last Eruption":1945,"Region":"Ogasawara_Archipelago"},"geometry":{"type":"Point","coordinates":[143.717,21.767]}},{"type":"Feature","properties":{"Name":"Funka Asane","Elevation Meters":-20,"Elevation Feet":-67,"Last Eruption":"~140,000 years ago","Region":"Ogasawara_Archipelago"},"geometry":{"type":"Point","coordinates":[141.238,25.455]}},{"type":"Feature","properties":{"Name":"Kita-Iojima (North Iwo Jima)","Elevation Meters":792,"Elevation Feet":2598,"Last Eruption":2015,"Region":"Ogasawara_Archipelago"},"geometry":{"type":"Point","coordinates":[141.28,25.43]}},{"type":"Feature","properties":{"Name":"Iojima (Iwo Jima)","Elevation Meters":161,"Elevation Feet":528,"Last Eruption":1984,"Region":"Ogasawara_Archipelago"},"geometry":{"type":"Point","coordinates":[141.315,24.781]}},{"type":"Feature","properties":{"Name":"Kaitoku Seamount","Elevation Meters":-103,"Elevation Feet":-338,"Last Eruption":1988,"Region":"Ogasawara_Archipelago"},"geometry":{"type":"Point","coordinates":[141.098,26.127]}},{"type":"Feature","properties":{"Name":"Kaikata Seamount","Elevation Meters":-165,"Elevation Feet":-541,"Last Eruption":1959,"Region":"Ogasawara_Archipelago"},"geometry":{"type":"Point","coordinates":[140.929,26.667]}},{"type":"Feature","properties":{"Name":"Kasuga Seamount","Elevation Meters":-598,"Elevation Feet":-1962,"Last Eruption":1988,"Region":"Ogasawara_Archipelago"},"geometry":{"type":"Point","coordinates":[142.717,22.767]}},{"type":"Feature","properties":{"Name":"Minami-Kasuga Seamount","Elevation Meters":-274,"Elevation Feet":-899,"Last Eruption":1976,"Region":"Ogasawara_Archipelago"},"geometry":{"type":"Point","coordinates":[143.633,21.6]}},{"type":"Feature","properties":{"Name":"Kita-Fukutokutai","Elevation Meters":-55,"Elevation Feet":-180,"Last Eruption":1979,"Region":"Ogasawara_Archipelago"},"geometry":{"type":"Point","coordinates":[141.419,24.414]}},{"type":"Feature","properties":{"Name":"Minami-Hiyoshi Seamount","Elevation Meters":-30,"Elevation Feet":-98,"Last Eruption":1990,"Region":"Ogasawara_Archipelago"},"geometry":{"type":"Point","coordinates":[141.935,23.5]}},{"type":"Feature","properties":{"Name":"Nikko Seamount","Elevation Meters":-612,"Elevation Feet":-2008,"Last Eruption":1991,"Region":"Ogasawara_Archipelago"},"geometry":{"type":"Point","coordinates":[142.3,23.083]}},{"type":"Feature","properties":{"Name":"Mokuyo Seamount","Elevation Meters":-920,"Elevation Feet":-3018,"Last Eruption":"~25,000 years ago","Region":"Ogasawara_Archipelago"},"geometry":{"type":"Point","coordinates":[140.566,28.317]}},{"type":"Feature","properties":{"Name":"Suiyo Seamount","Elevation Meters":-1418,"Elevation Feet":-4652,"Last Eruption":"~110,000 years ago","Region":"Ogasawara_Archipelago"},"geometry":{"type":"Point","coordinates":[140.633,28.6]}},{"type":"Feature","properties":{"Name":"Aira Caldera","Elevation Meters":"-","Elevation Feet":"-","Last Eruption":"~19,000 years ago","Region":"Kyushu"},"geometry":{"type":"Point","coordinates":[130.705,31.656]}},{"type":"Feature","properties":{"Name":"Ata Caldera","Elevation Meters":"-","Elevation Feet":"-","Last Eruption":2019,"Region":"Kyushu"},"geometry":{"type":"Point","coordinates":[130.683,31.359]}},{"type":"Feature","properties":{"Name":"Wakamiko Caldera","Elevation Meters":"-","Elevation Feet":"-","Last Eruption":"~2400 years ago","Region":"Kyushu"},"geometry":{"type":"Point","coordinates":[130.783,31.666]}},{"type":"Feature","properties":{"Name":"Mount Aso (A.K.A. Aso Caldera)","Elevation Meters":1592,"Elevation Feet":5223,"Last Eruption":"~1.1 million years ago","Region":"Kyushu"},"geometry":{"type":"Point","coordinates":[131.106,32.881]}},{"type":"Feature","properties":{"Name":"Fukue Volcano Group","Elevation Meters":315,"Elevation Feet":1033,"Last Eruption":"~30,000 years ago","Region":"Kyushu"},"geometry":{"type":"Point","coordinates":[128.861,32.653]}},{"type":"Feature","properties":{"Name":"Mount Futago","Elevation Meters":720,"Elevation Feet":2362,"Last Eruption":"~4900 years ago","Region":"Kyushu"},"geometry":{"type":"Point","coordinates":[131.601,33.583]}},{"type":"Feature","properties":{"Name":"Ibusuki Volcanic Field","Elevation Meters":922,"Elevation Feet":3025,"Last Eruption":"~350,000 years ago","Region":"Kyushu"},"geometry":{"type":"Point","coordinates":[130.57,31.22]}},{"type":"Feature","properties":{"Name":"Ikeda (Part of Ibusuki Volcanic Field)","Elevation Meters":256,"Elevation Feet":840,"Last Eruption":885,"Region":"Kyushu"},"geometry":{"type":"Point","coordinates":[130.564,31.235]}},{"type":"Feature","properties":{"Name":"Imuta","Elevation Meters":509,"Elevation Feet":1670,"Last Eruption":"~350,000–300,000 years ago","Region":"Kyushu"},"geometry":{"type":"Point","coordinates":[130.461,31.822]}},{"type":"Feature","properties":{"Name":"Mount Kaimon","Elevation Meters":922,"Elevation Feet":3025,"Last Eruption":"~200,000 years ago","Region":"Kyushu"},"geometry":{"type":"Point","coordinates":[130.528,31.18]}},{"type":"Feature","properties":{"Name":"Kakuto Caldera","Elevation Meters":"-","Elevation Feet":"-","Last Eruption":2018,"Region":"Kyushu"},"geometry":{"type":"Point","coordinates":[130.764,32.0455]}},{"type":"Feature","properties":{"Name":"Mount Kinbo (Kinpo)","Elevation Meters":665,"Elevation Feet":2182,"Last Eruption":"~400,000 years ago","Region":"Kyushu"},"geometry":{"type":"Point","coordinates":[130.639,32.814]}},{"type":"Feature","properties":{"Name":"Mount Kirishima","Elevation Meters":1700,"Elevation Feet":5577,"Last Eruption":1996,"Region":"Kyushu"},"geometry":{"type":"Point","coordinates":[130.864,31.931]}},{"type":"Feature","properties":{"Name":"Kobayashi Caldera","Elevation Meters":"-","Elevation Feet":"-","Last Eruption":2016,"Region":"Kyushu"},"geometry":{"type":"Point","coordinates":[130.976,31.99]}},{"type":"Feature","properties":{"Name":"Mount Kuju","Elevation Meters":1791,"Elevation Feet":5876,"Last Eruption":"~300,000 years ago","Region":"Kyushu"},"geometry":{"type":"Point","coordinates":[131.251,33.083]}},{"type":"Feature","properties":{"Name":"Sakurajima","Elevation Meters":1117,"Elevation Feet":3665,"Last Eruption":"~8200 years ago","Region":"Kyushu"},"geometry":{"type":"Point","coordinates":[130.657,31.585]}},{"type":"Feature","properties":{"Name":"Ojikajima Volcano Group","Elevation Meters":111,"Elevation Feet":364,"Last Eruption":"~8100–8000 years ago","Region":"Kyushu"},"geometry":{"type":"Point","coordinates":[129.063,33.201]}},{"type":"Feature","properties":{"Name":"Lake Sumiyoshi","Elevation Meters":"-","Elevation Feet":"-","Last Eruption":"~500,000 years ago","Region":"Kyushu"},"geometry":{"type":"Point","coordinates":[130.591,31.771]}},{"type":"Feature","properties":{"Name":"Yonemaru","Elevation Meters":"-","Elevation Feet":"-","Last Eruption":"~400,000 years ago","Region":"Kyushu"},"geometry":{"type":"Point","coordinates":[130.564,31.775]}},{"type":"Feature","properties":{"Name":"Mount Takasaki","Elevation Meters":628,"Elevation Feet":2060,"Last Eruption":867,"Region":"Kyushu"},"geometry":{"type":"Point","coordinates":[131.524,33.252]}},{"type":"Feature","properties":{"Name":"Mount Tara","Elevation Meters":1076,"Elevation Feet":3530,"Last Eruption":1996,"Region":"Kyushu"},"geometry":{"type":"Point","coordinates":[130.071,32.974]}},{"type":"Feature","properties":{"Name":"Mount Tsurumi and Mount Garan","Elevation Meters":1584,"Elevation Feet":5197,"Last Eruption":"~1900–2000 years ago","Region":"Kyushu"},"geometry":{"type":"Point","coordinates":[131.432,33.28]}},{"type":"Feature","properties":{"Name":"Mount Unzen","Elevation Meters":1500,"Elevation Feet":4921,"Last Eruption":"Late Pleistocene","Region":"Kyushu"},"geometry":{"type":"Point","coordinates":[130.294,32.757]}},{"type":"Feature","properties":{"Name":"Mount Yufu","Elevation Meters":1583,"Elevation Feet":5194,"Last Eruption":"~200,000 years ago","Region":"Kyushu"},"geometry":{"type":"Point","coordinates":[131.39,33.282]}},{"type":"Feature","properties":{"Name":"Akusekijima","Elevation Meters":586,"Elevation Feet":1923,"Last Eruption":"~30,000–20,000 years ago","Region":"Ryukyu_Islands"},"geometry":{"type":"Point","coordinates":[129.6,29.45]}},{"type":"Feature","properties":{"Name":"Gajajima","Elevation Meters":497,"Elevation Feet":1631,"Last Eruption":1924,"Region":"Ryukyu_Islands"},"geometry":{"type":"Point","coordinates":[129.541,29.903]}},{"type":"Feature","properties":{"Name":"Kogajajima","Elevation Meters":301,"Elevation Feet":988,"Last Eruption":1968,"Region":"Ryukyu_Islands"},"geometry":{"type":"Point","coordinates":[129.625,29.879]}},{"type":"Feature","properties":{"Name":"Submarine Volcano NNE of Iriomotejima","Elevation Meters":"-","Elevation Feet":"-","Last Eruption":2013,"Region":"Ryukyu_Islands"},"geometry":{"type":"Point","coordinates":[124,24.558]}},{"type":"Feature","properties":{"Name":"Iotorishima","Elevation Meters":212,"Elevation Feet":696,"Last Eruption":"~780–840 AD","Region":"Ryukyu_Islands"},"geometry":{"type":"Point","coordinates":[128.224,27.877]}},{"type":"Feature","properties":{"Name":"Kikai Caldera","Elevation Meters":704,"Elevation Feet":2310,"Last Eruption":2018,"Region":"Ryukyu_Islands"},"geometry":{"type":"Point","coordinates":[130.308,30.789]}},{"type":"Feature","properties":{"Name":"Kuchinoshima","Elevation Meters":628,"Elevation Feet":2060,"Last Eruption":1914,"Region":"Ryukyu_Islands"},"geometry":{"type":"Point","coordinates":[129.924,29.967]}},{"type":"Feature","properties":{"Name":"Kuchinoerabujima","Elevation Meters":649,"Elevation Feet":2129,"Last Eruption":2016,"Region":"Ryukyu_Islands"},"geometry":{"type":"Point","coordinates":[130.22,30.43]}},{"type":"Feature","properties":{"Name":"Nakanoshima","Elevation Meters":979,"Elevation Feet":3212,"Last Eruption":"~10,000 years ago","Region":"Ryukyu_Islands"},"geometry":{"type":"Point","coordinates":[129.856,29.859]}},{"type":"Feature","properties":{"Name":"Suwanosejima","Elevation Meters":799,"Elevation Feet":2621,"Last Eruption":2016,"Region":"Ryukyu_Islands"},"geometry":{"type":"Point","coordinates":[129.714,29.638]}},{"type":"Feature","properties":{"Name":"Yokoatejima","Elevation Meters":495,"Elevation Feet":1624,"Last Eruption":"~10,000 years ago","Region":"Ryukyu_Islands"},"geometry":{"type":"Point","coordinates":[128.996,28.799]}}]}